0 COSMOS 2337
1 24725U 97006A   13282.11106257  .00000011  00000-0  27787-5 0  1485
2 24725 082.6105 336.0859 0010328 157.8660 289.5142 12.60644148766179
0 COSMOS 2337
1 24725U 97006A   13284.16676579  .00000053  00000-0  24288-3 0  1499
2 24725 082.6102 334.7838 0010402 153.4785 258.6936 12.60644088766431
0 COSMOS 2337
1 24725U 97006A   13286.48530701  .00000054  00000-0  24539-3 0  1504
2 24725 082.6096 333.3152 0010453 148.7041 340.5072 12.60644059766727
0 COSMOS 2337
1 24725U 97006A   13288.62482100  .00000036  00000-0  14323-3 0  1512
2 24725 082.6090 331.9597 0010494 144.2649 329.9063 12.60644312766990
0 COSMOS 2337
1 24725U 97006A   13291.15109523  .00000008  00000-0 -17288-4 0  1524
2 24725 082.6085 330.3590 0010583 138.9820 274.5182 12.60644660767310
0 COSMOS 2337
1 24725U 97006A   13293.30842872  .00000008  00000-0 -13005-4 0  1538
2 24725 082.6084 328.9918 0010640 134.5279 344.7674 12.60644732767585
0 COSMOS 2337
1 24725U 97006A   13295.75326749  .00000014  00000-0  19763-4 0  1543
2 24725 082.6083 327.4426 0010653 129.4637 279.7681 12.60644611767892
